start=new Date('2023-02-18T00:00:00.000Z').valueOf();
sats=[{"ARG_OF_PERICENTER":"90.7188","CLASSIFICATION_TYPE":"U","SEMIMAJOR_AXIS":"6922.971","MEAN_ELEMENT_THEORY":"SGP4","OBJECT_ID":"2019-074AL","INCLINATION":"53.0520","MEAN_MOTION_DOT":"-0.00000565","ECCENTRICITY":"0.00015880","MEAN_MOTION_DDOT":"0.0000000000000","TLE_LINE2":"2 44747  53.0520 196.4049 0001588  90.7188 269.3984 15.07175948179994","RCS_SIZE":"LARGE","COUNTRY_CODE":"US","DECAY_DATE":null,"GP_ID":"225832645","FILE":"3804075","MEAN_MOTION":"15.07175948","CENTER_NAME":"EARTH","TIME_SYSTEM":"UTC","LAUNCH_DATE":"2019-11-11","PERIOD":"95.543","ELEMENT_SET_NO":"999","OBJECT_TYPE":"PAYLOAD","EPOCH":"2023-02-17T16:33:49.168224","TLE_LINE1":"1 44747U 19074AL  23048.69015241 -.00000565  00000-0 -18503-4 0  9991","SITE":"AFETR","REV_AT_EPOCH":"17999","REF_FRAME":"TEME","MEAN_ANOMALY":"269.3984","PERIAPSIS":"543.737","APOAPSIS":"545.936","NORAD_CAT_ID":"44747","EPHEMERIS_TYPE":"0","OBJECT_NAME":"STARLINK-1042","RA_OF_ASC_NODE":"196.4049","BSTAR":"-0.00001850300000"},{"MEAN_MOTION_DOT":"0.00024346","OBJECT_ID":"2019-074AM","INCLINATION":"53.0505","SEMIMAJOR_AXIS":"6925.330","MEAN_ELEMENT_THEORY":"SGP4","ARG_OF_PERICENTER":"69.7806","CLASSIFICATION_TYPE":"U","CENTER_NAME":"EARTH","TIME_SYSTEM":"UTC","FILE":"3804075","MEAN_MOTION":"15.06406174","GP_ID":"225833894","DECAY_DATE":null,"ECCENTRICITY":"0.00010260","MEAN_MOTION_DDOT":"0.0000000000000","TLE_LINE2":"2 44748  53.0505 195.4566 0001026  69.7806 290.3293 15.06406174180021","RCS_SIZE":"LARGE","COUNTRY_CODE":"US","MEAN_ANOMALY":"290.3293","TLE_LINE1":"1 44748U 19074AM  23048.93058077  .00024346  00000-0  16474-2 0  9997","SITE":"AFETR","REV_AT_EPOCH":"18002","REF_FRAME":"TEME","ELEMENT_SET_NO":"999","OBJECT_TYPE":"PAYLOAD","EPOCH":"2023-02-17T22:20:02.178528","LAUNCH_DATE":"2019-11-11","PERIOD":"95.592","RA_OF_ASC_NODE":"195.4566","BSTAR":"0.00164740000000","NORAD_CAT_ID":"44748","EPHEMERIS_TYPE":"0","OBJECT_NAME":"STARLINK-1043","PERIAPSIS":"546.484","APOAPSIS":"547.905"},{"LAUNCH_DATE":"2019-11-11","PERIOD":"95.592","ELEMENT_SET_NO":"999","EPOCH":"2023-02-17T19:30:11.619936","OBJECT_TYPE":"PAYLOAD","TLE_LINE1":"1 44751U 19074AQ  23048.81263449  .00000321  00000-0  40413-4 0  9998","SITE":"AFETR","REV_AT_EPOCH":"18000","REF_FRAME":"TEME","MEAN_ANOMALY":"279.4617","PERIAPSIS":"546.373","APOAPSIS":"548.082","NORAD_CAT_ID":"44751","EPHEMERIS_TYPE":"0","OBJECT_NAME":"STARLINK-1046","RA_OF_ASC_NODE":"195.9888","BSTAR":"0.00004041300000","ARG_OF_PERICENTER":"80.6511","CLASSIFICATION_TYPE":"U","MEAN_ELEMENT_THEORY":"SGP4","SEMIMAJOR_AXIS":"6925.362","INCLINATION":"53.0510","OBJECT_ID":"2019-074AQ","MEAN_MOTION_DOT":"0.00000321","MEAN_MOTION_DDOT":"0.0000000000000","ECCENTRICITY":"0.00012340","TLE_LINE2":"2 44751  53.0510 195.9888 0001234  80.6511 279.4617 15.06395490180003","RCS_SIZE":"LARGE","COUNTRY_CODE":"US","GP_ID":"225833647","DECAY_DATE":null,"FILE":"3804075","MEAN_MOTION":"15.06395490","CENTER_NAME":"EARTH","TIME_SYSTEM":"UTC"},{"RA_OF_ASC_NODE":"176.1901","BSTAR":"0.00157930000000","NORAD_CAT_ID":"44752","EPHEMERIS_TYPE":"0","OBJECT_NAME":"STARLINK-1047","PERIAPSIS":"546.249","APOAPSIS":"548.156","MEAN_ANOMALY":"276.5591","TLE_LINE1":"1 44752U 19074AR  23048.76655500  .00023323  00000-0  15793-2 0  9994","SITE":"AFETR","REV_AT_EPOCH":"18027","REF_FRAME":"TEME","ELEMENT_SET_NO":"999","EPOCH":"2023-02-17T18:23:50.352000","OBJECT_TYPE":"PAYLOAD","LAUNCH_DATE":"2019-11-11","PERIOD":"95.592","CENTER_NAME":"EARTH","TIME_SYSTEM":"UTC","FILE":"3804075","MEAN_MOTION":"15.06403669","GP_ID":"225832395","DECAY_DATE":null,"ECCENTRICITY":"0.00013770","MEAN_MOTION_DDOT":"0.0000000000000","TLE_LINE2":"2 44752  53.0527 176.1901 0001377  83.5554 276.5591 15.06403669180272","RCS_SIZE":"LARGE","COUNTRY_CODE":"US","MEAN_MOTION_DOT":"0.00023323","OBJECT_ID":"2019-074AR","INCLINATION":"53.0527","SEMIMAJOR_AXIS":"6925.337","MEAN_ELEMENT_THEORY":"SGP4","ARG_OF_PERICENTER":"83.5554","CLASSIFICATION_TYPE":"U"},{"GP_ID":"225833145","DECAY_DATE":null,"ECCENTRICITY":"0.00011390","MEAN_MOTION_DDOT":"0.0000000000000","TLE_LINE2":"2 44753  53.0511 156.1703 0001139  81.5103 278.6015 15.06397944180551","COUNTRY_CODE":"US","RCS_SIZE":"LARGE","CENTER_NAME":"EARTH","TIME_SYSTEM":"UTC","FILE":"3804075","MEAN_MOTION":"15.06397944","SEMIMAJOR_AXIS":"6925.355","MEAN_ELEMENT_THEORY":"SGP4","ARG_OF_PERICENTER":"81.5103","CLASSIFICATION_TYPE":"U","MEAN_MOTION_DOT":"0.00035903","INCLINATION":"53.0511","OBJECT_ID":"2019-074AS","PERIAPSIS":"546.431","APOAPSIS":"548.009","RA_OF_ASC_NODE":"156.1703","BSTAR":"0.00241710000000","NORAD_CAT_ID":"44753","EPHEMERIS_TYPE":"0","OBJECT_NAME":"STARLINK-1048","ELEMENT_SET_NO":"999","EPOCH":"2023-02-17T18:31:48.134496","OBJECT_TYPE":"PAYLOAD","LAUNCH_DATE":"2019-11-11","PERIOD":"95.592","MEAN_ANOMALY":"278.6015","TLE_LINE1":"1 44753U 19074AS  23048.77208489  .00035903  00000-0  24171-2 0  9993","SITE":"AFETR","REV_AT_EPOCH":"18055","REF_FRAME":"TEME"},{"SEMIMAJOR_AXIS":"6925.378","MEAN_ELEMENT_THEORY":"SGP4","CLASSIFICATION_TYPE":"U","ARG_OF_PERICENTER":"87.2168","MEAN_MOTION_DOT":"0.00029260","INCLINATION":"53.0510","OBJECT_ID":"2019-074AT","DECAY_DATE":null,"GP_ID":"225833397","RCS_SIZE":"LARGE","COUNTRY_CODE":"US","TLE_LINE2":"2 44754  53.0510 156.1539 0001326  87.2168 272.8973 15.06390540180554","ECCENTRICITY":"0.00013260","MEAN_MOTION_DDOT":"0.0000000000000","TIME_SYSTEM":"UTC","CENTER_NAME":"EARTH","MEAN_MOTION":"15.06390540","FILE":"3804075","OBJECT_TYPE":"PAYLOAD","EPOCH":"2023-02-17T18:37:06.730176","ELEMENT_SET_NO":"999","PERIOD":"95.593","LAUNCH_DATE":"2019-11-11","MEAN_ANOMALY":"272.8973","REV_AT_EPOCH":"18055","REF_FRAME":"TEME","SITE":"AFETR","TLE_LINE1":"1 44754U 19074AT  23048.77577234  .00029260  00000-0  19756-2 0  9993","APOAPSIS":"548.161","PERIAPSIS":"546.324","BSTAR":"0.00197560000000","RA_OF_ASC_NODE":"156.1539","OBJECT_NAME":"STARLINK-1049","EPHEMERIS_TYPE":"0","NORAD_CAT_ID":"44754"},{"NORAD_CAT_ID":"44757","EPHEMERIS_TYPE":"0","OBJECT_NAME":"STARLINK-1052","RA_OF_ASC_NODE":"175.8459","BSTAR":"-0.00005826100000","PERIAPSIS":"546.423","APOAPSIS":"547.977","TLE_LINE1":"1 44757U 19074AW  23048.84395983 -.00001149  00000-0 -58261-4 0  9997","SITE":"AFETR","REV_AT_EPOCH":"18028","REF_FRAME":"TEME","MEAN_ANOMALY":"277.8404","LAUNCH_DATE":"2019-11-11","PERIOD":"95.592","ELEMENT_SET_NO":"999","OBJECT_TYPE":"PAYLOAD","EPOCH":"2023-02-17T20:15:18.129312","FILE":"3804075","MEAN_MOTION":"15.06404483","CENTER_NAME":"EARTH","TIME_SYSTEM":"UTC","ECCENTRICITY":"0.00011220","MEAN_MOTION_DDOT":"0.0000000000000","TLE_LINE2":"2 44757  53.0523 175.8459 0001122  82.2713 277.8404 15.06404483180281","COUNTRY_CODE":"US","RCS_SIZE":"LARGE","GP_ID":"225834145","DECAY_DATE":null,"OBJECT_ID":"2019-074AW","INCLINATION":"53.0523","MEAN_MOTION_DOT":"-0.00001149","ARG_OF_PERICENTER":"82.2713","CLASSIFICATION_TYPE":"U","SEMIMAJOR_AXIS":"6925.335","MEAN_ELEMENT_THEORY":"SGP4"},{"MEAN_ANOMALY":"269.2374","SITE":"AFETR","TLE_LINE1":"1 44758U 19074AX  23048.66152037  .00003071  00000-0  22501-3 0  9990","REV_AT_EPOCH":"17998","REF_FRAME":"TEME","EPOCH":"2023-02-17T15:52:35.359968","OBJECT_TYPE":"PAYLOAD","ELEMENT_SET_NO":"999","LAUNCH_DATE":"2019-11-11","PERIOD":"95.592","RA_OF_ASC_NODE":"196.7476","BSTAR":"0.00022501000000","NORAD_CAT_ID":"44758","OBJECT_NAME":"STARLINK-1053","EPHEMERIS_TYPE":"0","APOAPSIS":"550.105","PERIAPSIS":"544.294","MEAN_MOTION_DOT":"0.00003071","OBJECT_ID":"2019-074AX","INCLINATION":"53.0427","MEAN_ELEMENT_THEORY":"SGP4","SEMIMAJOR_AXIS":"6925.335","ARG_OF_PERICENTER":"90.9096","CLASSIFICATION_TYPE":"U","TIME_SYSTEM":"UTC","CENTER_NAME":"EARTH","FILE":"3804075","MEAN_MOTION":"15.06404533","GP_ID":"225832895","DECAY_DATE":null,"TLE_LINE2":"2 44758  53.0427 196.7476 0004195  90.9096 269.2374 15.06404533179981","ECCENTRICITY":"0.00041950","MEAN_MOTION_DDOT":"0.0000000000000","COUNTRY_CODE":"US","RCS_SIZE":"LARGE"},{"REV_AT_EPOCH":"17763","REF_FRAME":"TEME","SITE":"AFETR","TLE_LINE1":"1 44759U 19074AY  23048.70943202 -.00000399  00000-0 -78758-5 0  9997","MEAN_ANOMALY":"277.2298","PERIOD":"95.593","LAUNCH_DATE":"2019-11-11","EPOCH":"2023-02-17T17:01:34.926528","OBJECT_TYPE":"PAYLOAD","ELEMENT_SET_NO":"999","OBJECT_NAME":"STARLINK-1054","EPHEMERIS_TYPE":"0","NORAD_CAT_ID":"44759","BSTAR":"-0.00000787580000","RA_OF_ASC_NODE":"196.4501","APOAPSIS":"547.979","PERIAPSIS":"546.530","INCLINATION":"53.0537","OBJECT_ID":"2019-074AY","MEAN_MOTION_DOT":"-0.00000399","CLASSIFICATION_TYPE":"U","ARG_OF_PERICENTER":"82.8810","MEAN_ELEMENT_THEORY":"SGP4","SEMIMAJOR_AXIS":"6925.390","MEAN_MOTION":"15.06386606","FILE":"3804075","TIME_SYSTEM":"UTC","CENTER_NAME":"EARTH","COUNTRY_CODE":"US","RCS_SIZE":"LARGE","TLE_LINE2":"2 44759  53.0537 196.4501 0001046  82.8810 277.2298 15.06386606177630","ECCENTRICITY":"0.00010460","MEAN_MOTION_DDOT":"0.0000000000000","GP_ID":"225832646","DECAY_DATE":null},{"CENTER_NAME":"EARTH","TIME_SYSTEM":"UTC","FILE":"3802730","MEAN_MOTION":"15.08958074","GP_ID":"225777884","DECAY_DATE":null,"MEAN_MOTION_DDOT":"0.0000000000000","ECCENTRICITY":"0.00015340","TLE_LINE2":"2 44760  53.0479 197.1445 0001534 179.0990 181.0003 15.08958074179962","RCS_SIZE":"LARGE","COUNTRY_CODE":"US","MEAN_MOTION_DOT":"0.00025666","OBJECT_ID":"2019-074AZ","INCLINATION":"53.0479","SEMIMAJOR_AXIS":"6917.520","MEAN_ELEMENT_THEORY":"SGP4","ARG_OF_PERICENTER":"179.0990","CLASSIFICATION_TYPE":"U","RA_OF_ASC_NODE":"197.1445","BSTAR":"0.00161950000000","NORAD_CAT_ID":"44760","EPHEMERIS_TYPE":"0","OBJECT_NAME":"STARLINK-1055","PERIAPSIS":"538.323","APOAPSIS":"540.446","MEAN_ANOMALY":"181.0003","TLE_LINE1":"1 44760U 19074AZ  23048.45144431  .00025666  00000-0  16195-2 0  9994","SITE":"AFETR","REF_FRAME":"TEME","REV_AT_EPOCH":"17996","ELEMENT_SET_NO":"999","OBJECT_TYPE":"PAYLOAD","EPOCH":"2023-02-17T10:50:04.788384","LAUNCH_DATE":"2019-11-11","PERIOD":"95.430"}];
